{
  "type": "FeatureCollection",
  "features": [
    {
      "type": "Feature",
      "properties": {
        "norad_id": 46435,
        "name": "IRIDIUM 33 DEB",
        "group": "iridium-33-debris",
        "lat": -27.852499642412234,
        "lon": -168.43222586035387,
        "alt_km": 710.3258260878365,
        "timestamp": "2025-12-13T16:48:33.095478+00:00",
        "meta_object_name": "IRIDIUM 33 DEB",
        "meta_object_id": "1997-051ABN",
        "meta_epoch": "2025-12-12T20:52:33.908160",
        "meta_mean_motion": 14.32319865,
        "meta_eccentricity": 0.02085953,
        "meta_inclination": 86.2838,
        "meta_ra_of_asc_node": 193.8931,
        "meta_arg_of_pericenter": 275.9535,
        "meta_mean_anomaly": 94.2215,
        "meta_ephemeris_type": 0,
        "meta_classification_type": "U",
        "meta_norad_cat_id": 46435,
        "meta_element_set_no": 999,
        "meta_rev_at_epoch": 7918,
        "meta_bstar": 0.012063551,
        "meta_mean_motion_dot": 0.00041649,
        "meta_mean_motion_ddot": 0,
        "tle_line1": "1 46435U 97051ABN 25346.86983690  .00041649  00000+0  12064-1 0  9990",
        "tle_line2": "2 46435  86.2838 193.8931 0208595 275.9535  94.2215 14.32319865 79188"
      },
      "geometry": {
        "type": "Point",
        "coordinates": [
          -168.43222586035387,
          -27.852499642412234
        ]
      }
    },
    {
      "type": "Feature",
      "properties": {
        "norad_id": 46734,
        "name": "IRIDIUM 33 DEB",
        "group": "iridium-33-debris",
        "lat": -14.827207959538965,
        "lon": -176.56377382953298,
        "alt_km": 777.9454778809122,
        "timestamp": "2025-12-13T16:48:33.095488+00:00",
        "meta_object_name": "IRIDIUM 33 DEB",
        "meta_object_id": "1997-051ABR",
        "meta_epoch": "2025-12-03T20:12:35.443296",
        "meta_mean_motion": 14.41795233,
        "meta_eccentricity": 0.00394426,
        "meta_inclination": 86.2642,
        "meta_ra_of_asc_node": 6.7702,
        "meta_arg_of_pericenter": 5.4679,
        "meta_mean_anomaly": 171.2392,
        "meta_ephemeris_type": 0,
        "meta_classification_type": "U",
        "meta_norad_cat_id": 46734,
        "meta_element_set_no": 999,
        "meta_rev_at_epoch": 62882,
        "meta_bstar": 0.0014594249,
        "meta_mean_motion_dot": 4.83e-05,
        "meta_mean_motion_ddot": 0,
        "tle_line1": "1 46734U 97051ABR 25337.84207689  .00004830  00000+0  14594-2 0  9999",
        "tle_line2": "2 46734  86.2642   6.7702 0039442   5.4679 171.2392 14.41795233628829"
      },
      "geometry": {
        "type": "Point",
        "coordinates": [
          -176.56377382953298,
          -14.827207959538965
        ]
      }
    },
    {
      "type": "Feature",
      "properties": {
        "norad_id": 46965,
        "name": "IRIDIUM 33 DEB",
        "group": "iridium-33-debris",
        "lat": 36.2742696601457,
        "lon": -17.032306971272845,
        "alt_km": 684.4156408587232,
        "timestamp": "2025-12-13T16:48:33.095498+00:00",
        "meta_object_name": "IRIDIUM 33 DEB",
        "meta_object_id": "1997-051ABX",
        "meta_epoch": "2025-12-09T11:22:29.536608",
        "meta_mean_motion": 14.60256222,
        "meta_eccentricity": 0.0018504,
        "meta_inclination": 86.3353,
        "meta_ra_of_asc_node": 342.1454,
        "meta_arg_of_pericenter": 344.7825,
        "meta_mean_anomaly": 167.4281,
        "meta_ephemeris_type": 0,
        "meta_classification_type": "U",
        "meta_norad_cat_id": 46965,
        "meta_element_set_no": 999,
        "meta_rev_at_epoch": 62220,
        "meta_bstar": 0.0013057124,
        "meta_mean_motion_dot": 6.336e-05,
        "meta_mean_motion_ddot": 0,
        "tle_line1": "1 46965U 97051ABX 25343.47395297  .00006336  00000+0  13057-2 0  9990",
        "tle_line2": "2 46965  86.3353 342.1454 0018504 344.7825 167.4281 14.60256222622205"
      },
      "geometry": {
        "type": "Point",
        "coordinates": [
          -17.032306971272845,
          36.2742696601457
        ]
      }
    },
    {
      "type": "Feature",
      "properties": {
        "norad_id": 46971,
        "name": "IRIDIUM 33 DEB",
        "group": "iridium-33-debris",
        "lat": -66.29000876029151,
        "lon": 161.0464110117798,
        "alt_km": 579.3934789968052,
        "timestamp": "2025-12-13T16:48:33.095508+00:00",
        "meta_object_name": "IRIDIUM 33 DEB",
        "meta_object_id": "1997-051ACD",
        "meta_epoch": "2025-12-09T17:53:50.411040",
        "meta_mean_motion": 14.9771662,
        "meta_eccentricity": 0.00041979,
        "meta_inclination": 86.3387,
        "meta_ra_of_asc_node": 334.5212,
        "meta_arg_of_pericenter": 335.9126,
        "meta_mean_anomaly": 199.6728,
        "meta_ephemeris_type": 0,
        "meta_classification_type": "U",
        "meta_norad_cat_id": 46971,
        "meta_element_set_no": 999,
        "meta_rev_at_epoch": 64185,
        "meta_bstar": 0.0038941985,
        "meta_mean_motion_dot": 0.00045901,
        "meta_mean_motion_ddot": 0,
        "tle_line1": "1 46971U 97051ACD 25343.74572235  .00045901  00000+0  38942-2 0  9997",
        "tle_line2": "2 46971  86.3387 334.5212 0004197 335.9126 199.6728 14.97716620641853"
      },
      "geometry": {
        "type": "Point",
        "coordinates": [
          161.0464110117798,
          -66.29000876029151
        ]
      }
    },
    {
      "type": "Feature",
      "properties": {
        "norad_id": 46974,
        "name": "IRIDIUM 33 DEB",
        "group": "iridium-33-debris",
        "lat": 55.67372876562949,
        "lon": 110.29585758148522,
        "alt_km": 780.1777876877622,
        "timestamp": "2025-12-13T16:48:33.095519+00:00",
        "meta_object_name": "IRIDIUM 33 DEB",
        "meta_object_id": "1997-051ACG",
        "meta_epoch": "2025-12-11T14:39:57.672288",
        "meta_mean_motion": 14.44318157,
        "meta_eccentricity": 0.00957564,
        "meta_inclination": 86.2985,
        "meta_ra_of_asc_node": 105.7678,
        "meta_arg_of_pericenter": 190.7341,
        "meta_mean_anomaly": 169.1819,
        "meta_ephemeris_type": 0,
        "meta_classification_type": "U",
        "meta_norad_cat_id": 46974,
        "meta_element_set_no": 999,
        "meta_rev_at_epoch": 57492,
        "meta_bstar": 0.0067113104,
        "meta_mean_motion_dot": 0.00024497,
        "meta_mean_motion_ddot": 0,
        "tle_line1": "1 46974U 97051ACG 25345.61108417  .00024497  00000+0  67113-2 0  9994",
        "tle_line2": "2 46974  86.2985 105.7678 0095756 190.7341 169.1819 14.44318157574921"
      },
      "geometry": {
        "type": "Point",
        "coordinates": [
          110.29585758148522,
          55.67372876562949
        ]
      }
    },
    {
      "type": "Feature",
      "properties": {
        "norad_id": 46979,
        "name": "IRIDIUM 33 DEB",
        "group": "iridium-33-debris",
        "lat": -40.03938365086523,
        "lon": -128.80457700697823,
        "alt_km": 586.8046223769406,
        "timestamp": "2025-12-13T16:48:33.095529+00:00",
        "meta_object_name": "IRIDIUM 33 DEB",
        "meta_object_id": "1997-051ACM",
        "meta_epoch": "2025-12-08T11:38:51.411264",
        "meta_mean_motion": 14.88966671,
        "meta_eccentricity": 0.00280118,
        "meta_inclination": 86.3345,
        "meta_ra_of_asc_node": 50.5282,
        "meta_arg_of_pericenter": 237.8713,
        "meta_mean_anomaly": 121.9794,
        "meta_ephemeris_type": 0,
        "meta_classification_type": "U",
        "meta_norad_cat_id": 46979,
        "meta_element_set_no": 999,
        "meta_rev_at_epoch": 35365,
        "meta_bstar": 0.0048738532,
        "meta_mean_motion_dot": 0.00046401,
        "meta_mean_motion_ddot": 0,
        "tle_line1": "1 46979U 97051ACM 25342.48531726  .00046401  00000+0  48739-2 0  9996",
        "tle_line2": "2 46979  86.3345  50.5282 0028011 237.8713 121.9794 14.88966671353652"
      },
      "geometry": {
        "type": "Point",
        "coordinates": [
          -128.80457700697823,
          -40.03938365086523
        ]
      }
    }
  ]
}